NORAD_CAT_ID,OBJECT_NAME,OBJECT_TYPE,EPOCH,MEAN_MOTION,ECCENTRICITY,INCLINATION,RA_OF_ASC_NODE,ARG_OF_PERICENTER,MEAN_ANOMALY,BSTAR,MEAN_MOTION_DOT,MEAN_MOTION_DDOT,TLE_LINE0,TLE_LINE1,TLE_LINE2,SEMIMAJOR_AXIS,PERIOD,APOGEE,PERIGEE,DECAYED
53635.0,STARLINK-4587,PAYLOAD,2023-03-10 18:59:53,15.08840379,0.0001838,53.2199,99.252,84.4968,275.6234,-1.711e-05,-5.6e-06,0.0,0 STARLINK-4587,1 53635U 22104AZ  23069.79159660 -.00000560  00000-0 -17110-4 0  9991,2 53635  53.2199  99.2520 0001838  84.4968 275.6234 15.08840379 29914,6917.879,95.438,541.016,538.473,0.0
53635.0,STARLINK-4587,PAYLOAD,2023-03-11 10:53:46,15.08835787,0.0001724,53.2203,96.277,84.4409,275.6779,-0.00012749,-2.316e-05,0.0,0 STARLINK-4587,1 53635U 22104AZ  23070.45400664 -.00002316  00000-0 -12749-3 0  9992,2 53635  53.2203  96.2770 0001724  84.4409 275.6779 15.08835787 30012,6917.893,95.438,540.951,538.566,0.0
53635.0,STARLINK-4587,PAYLOAD,2023-03-12 05:58:23,15.08838936,0.0001433,53.2197,92.7096,83.9235,276.192,3.7445e-05,3.08e-06,0.0,0 STARLINK-4587,1 53635U 22104AZ  23071.24887957  .00000308  00000-0  37445-4 0  9992,2 53635  53.2197  92.7096 0001433  83.9235 276.1920 15.08838936 30130,6917.884,95.438,540.74,538.757,0.0
53635.0,STARLINK-4587,PAYLOAD,2023-03-12 09:09:08,15.08849772,0.0001305,53.2196,92.1133,96.6382,263.4758,-4.7235e-06,-3.63e-06,0.0,0 STARLINK-4587,1 53635U 22104AZ  23071.38135375 -.00000363  00000-0 -47235-5 0  9999,2 53635  53.2196  92.1133 0001305  96.6382 263.4758 15.08849772 30157,6917.851,95.437,540.618,538.813,0.0
53635.0,STARLINK-4587,PAYLOAD,2023-03-13 01:03:00,15.08832505,0.0001505,53.2195,89.142,81.6409,278.4754,0.00015794,2.226e-05,0.0,0 STARLINK-4587,1 53635U 22104AZ  23072.04375936  .00002226  00000-0  15794-3 0  9993,2 53635  53.2195  89.1420 0001505  81.6409 278.4754 15.08832505 30256,6917.903,95.438,540.809,538.727,0.0
53635.0,STARLINK-4587,PAYLOAD,2023-03-13 10:35:19,15.08837057,0.0001588,53.2194,87.3588,66.0503,294.0655,0.00016022,2.263e-05,0.0,0 STARLINK-4587,1 53635U 22104AZ  23072.44119814  .00002263  00000-0  16022-3 0  9994,2 53635  53.2194  87.3588 0001588  66.0503 294.0655 15.08837057 31334,6917.889,95.438,540.853,538.656,0.0
53635.0,STARLINK-4587,PAYLOAD,2023-03-14 05:39:57,15.08839697,0.0001338,53.2186,83.7876,101.7621,258.3521,-3.9633e-05,-9.19e-06,0.0,0 STARLINK-4587,1 53635U 22104AZ  23073.23608206 -.00000919  00000-0 -39633-4 0  9992,2 53635  53.2186  83.7876 0001338 101.7621 258.3521 15.08839697 30433,6917.881,95.438,540.672,538.821,0.0
53635.0,STARLINK-4587,PAYLOAD,2023-03-14 10:26:06,15.08842976,0.000128,53.2188,82.8946,103.3558,256.7577,-7.1494e-06,-4.02e-06,0.0,0 STARLINK-4587,1 53635U 22104AZ  23073.43479856 -.00000402  00000-0 -71494-5 0  9990,2 53635  53.2188  82.8946 0001280 103.3558 256.7577 15.08842976 31489,6917.871,95.437,540.622,538.851,0.0
53635.0,STARLINK-4587,PAYLOAD,2023-03-15 03:55:23,15.08815085,0.0001677,53.2191,79.6236,112.5157,247.6013,-0.00016224,-2.867e-05,0.0,0 STARLINK-4587,1 53635U 22104AZ  23074.16346789 -.00002867  00000-0 -16224-3 0  9994,2 53635  53.2191  79.6236 0001677 112.5157 247.6013 15.08815085 30570,6917.957,95.439,540.982,538.661,0.0
53635.0,STARLINK-4587,PAYLOAD,2023-03-15 05:30:46,15.08822123,0.0001537,53.2183,79.3199,133.3312,226.7808,-0.00019506,-3.389e-05,0.0,0 STARLINK-4587,1 53635U 22104AZ  23074.22970367 -.00003389  00000-0 -19506-3 0  9992,2 53635  53.2183  79.3199 0001537 133.3312 226.7808 15.08822123 31601,6917.935,95.439,540.863,538.737,0.0
53635.0,STARLINK-4587,PAYLOAD,2023-03-16 05:21:31,15.08854086,0.0001448,53.2191,74.8644,114.2115,245.9029,0.00018188,2.609e-05,0.0,0 STARLINK-4587,1 53635U 22104AZ  23075.22327710  .00002609  00000-0  18188-3 0  9998,2 53635  53.2191  74.8644 0001448 114.2115 245.9029 15.08854086 30739,6917.837,95.437,540.704,538.701,0.0
53635.0,STARLINK-4587,PAYLOAD,2023-03-16 10:07:40,15.08858354,0.000113,53.2188,73.9737,96.7171,263.395,0.00021444,3.128e-05,0.0,0 STARLINK-4587,1 53635U 22104AZ  23075.42199268  .00003128  00000-0  21444-3 0  9991,2 53635  53.2188  73.9737 0001130  96.7171 263.3950 15.08858354 31787,6917.824,95.436,540.471,538.908,0.0
53635.0,STARLINK-4587,PAYLOAD,2023-03-16 16:29:13,15.08851273,0.0001029,53.219,72.7819,101.9533,258.1574,0.00014609,2.039e-05,0.0,0 STARLINK-4587,1 53635U 22104AZ  23075.68695669  .00002039  00000-0  14609-3 0  9990,2 53635  53.2190  72.7819 0001029 101.9533 258.1574 15.08851273 30805,6917.846,95.437,540.423,538.999,0.0
53635.0,STARLINK-4587,PAYLOAD,2023-03-17 06:47:43,15.08825281,0.0001545,53.2209,70.1131,103.9676,256.1488,0.00018078,2.589e-05,0.0,0 STARLINK-4587,1 53635U 22104AZ  23076.28313840  .00002589  00000-0  18078-3 0  9999,2 53635  53.2209  70.1131 0001545 103.9676 256.1488 15.08825281 30899,6917.925,95.438,540.859,538.722,0.0
53635.0,STARLINK-4587,PAYLOAD,2023-03-17 16:20:01,15.08839176,0.0001449,53.2211,68.3287,100.1567,259.9589,2.4932e-07,-2.84e-06,0.0,0 STARLINK-4587,1 53635U 22104AZ  23076.68057551 -.00000284  00000-0  24932-6 0  9997,2 53635  53.2211  68.3287 0001449 100.1567 259.9589 15.08839176 30952,6917.883,95.438,540.75,538.746,0.0
53635.0,STARLINK-4587,PAYLOAD,2023-03-18 08:13:51,15.08862314,0.0001225,53.2191,65.3502,124.0488,236.0621,-2.3789e-05,-6.67e-06,0.0,0 STARLINK-4587,1 53635U 22104AZ  23077.34295700 -.00000667  00000-0 -23789-4 0  9994,2 53635  53.2191  65.3502 0001225 124.0488 236.0621 15.08862314 31050,6917.812,95.436,540.525,538.83,0.0
53635.0,STARLINK-4587,PAYLOAD,2023-03-18 16:10:47,15.08853999,0.0001284,53.2194,63.8646,91.7394,268.3745,-0.00012329,-2.25e-05,0.0,0 STARLINK-4587,1 53635U 22104AZ  23077.67416429 -.00002250  00000-0 -12329-3 0  9990,2 53635  53.2194  63.8646 0001284  91.7394 268.3745 15.08853999 31106,6917.838,95.437,540.591,538.814,0.0
53635.0,STARLINK-4587,PAYLOAD,2023-03-18 22:32:20,15.08842439,0.0001674,53.2202,62.6783,91.6237,268.4947,1.9612e-05,2.4e-07,0.0,0 STARLINK-4587,1 53635U 22104AZ  23077.93912775  .00000024  00000-0  19612-4 0  9992,2 53635  53.2202  62.6783 0001674  91.6237 268.4947 15.08842439 32162,6917.873,95.437,540.896,538.58,0.0
53635.0,STARLINK-4587,PAYLOAD,2023-03-19 04:53:53,15.08837105,0.0001451,53.2201,61.4872,88.0337,272.0821,-2.934e-06,-3.35e-06,0.0,0 STARLINK-4587,1 53635U 22104AZ  23078.20409194 -.00000335  00000-0 -29340-5 0  9996,2 53635  53.2201  61.4872 0001451  88.0337 272.0821 15.08837105 31188,6917.889,95.438,540.758,538.75,0.0
53635.0,STARLINK-4587,PAYLOAD,2023-03-19 06:29:16,15.08838803,0.0001395,53.2203,61.1897,84.5187,275.5964,2.4259e-06,-2.49e-06,0.0,0 STARLINK-4587,1 53635U 22104AZ  23078.27033082 -.00000249  00000-0  24259-5 0  9999,2 53635  53.2203  61.1897 0001395  84.5187 275.5964 15.08838803 32212,6917.884,95.438,540.714,538.784,0.0
53635.0,STARLINK-4587,PAYLOAD,2023-03-19 16:01:35,15.08837037,0.0001409,53.2197,59.4047,85.7807,274.3346,-3.3998e-06,-3.42e-06,0.0,0 STARLINK-4587,1 53635U 22104AZ  23078.66777205 -.00000342  00000-0 -33998-5 0  9999,2 53635  53.2197  59.4047 0001409  85.7807 274.3346 15.08837037 32274,6917.889,95.438,540.729,538.78,0.0
53635.0,STARLINK-4587,PAYLOAD,2023-03-20 04:44:40,15.08844626,0.0001186,53.219,57.0251,92.3164,267.7964,-7.8513e-06,-4.13e-06,0.0,0 STARLINK-4587,1 53635U 22104AZ  23079.19768626 -.00000413  00000-0 -78513-5 0  9996,2 53635  53.2190  57.0251 0001186  92.3164 267.7964 15.08844626 31330,6917.866,95.437,540.552,538.911,0.0
53635.0,STARLINK-4587,PAYLOAD,2023-03-20 07:55:26,15.08846085,0.0001199,53.219,56.4302,91.9583,268.1546,1.0427e-05,-1.22e-06,0.0,0 STARLINK-4587,1 53635U 22104AZ  23079.33016433 -.00000122  00000-0  10427-4 0  9999,2 53635  53.2190  56.4302 0001199  91.9583 268.1546 15.08846085 32371,6917.862,95.437,540.556,538.897,0.0
53635.0,STARLINK-4587,PAYLOAD,2023-03-20 15:52:21,15.08849159,0.0001084,53.2193,54.9449,103.1054,257.0059,-1.6217e-05,-5.46e-06,0.0,0 STARLINK-4587,1 53635U 22104AZ  23079.66136118 -.00000546  00000-0 -16217-4 0  9992,2 53635  53.2193  54.9449 0001084 103.1054 257.0059 15.08849159 32428,6917.852,95.437,540.467,538.967,0.0
53635.0,STARLINK-4587,PAYLOAD,2023-03-21 07:46:12,15.08845883,0.0001213,53.2196,51.9692,96.6564,263.4566,5.5189e-05,5.91e-06,0.0,0 STARLINK-4587,1 53635U 22104AZ  23080.32376038  .00000591  00000-0  55189-4 0  9993,2 53635  53.2196  51.9692 0001213  96.6564 263.4566 15.08845883 31506,6917.862,95.437,540.567,538.888,0.0
53635.0,STARLINK-4587,PAYLOAD,2023-03-22 04:26:14,15.08842637,9.97e-05,53.2198,48.1048,93.7893,266.3213,-4.8345e-05,-1.057e-05,0.0,0 STARLINK-4587,1 53635U 22104AZ  23081.18488751 -.00001057  00000-0 -48345-4 0  9990,2 53635  53.2198  48.1048 0000997  93.7893 266.3213 15.08842637 31631,6917.872,95.437,540.427,539.048,0.0
53635.0,STARLINK-4587,PAYLOAD,2023-03-22 07:37:00,15.08841504,0.0001006,53.2194,47.5089,95.777,264.3337,-7.2237e-06,-4.03e-06,0.0,0 STARLINK-4587,1 53635U 22104AZ  23081.31736594 -.00000403  00000-0 -72237-5 0  9998,2 53635  53.2194  47.5089 0001006  95.7770 264.3337 15.08841504 32675,6917.876,95.437,540.437,539.045,0.0
53635.0,STARLINK-4587,PAYLOAD,2023-03-23 04:17:00,15.08851902,8.81e-05,53.2192,43.6464,84.717,275.3923,-2.418e-05,-6.73e-06,0.0,0 STARLINK-4587,1 53635U 22104AZ  23082.17848000 -.00000673  00000-0 -24180-4 0  9991,2 53635  53.2192  43.6464 0000881  84.7170 275.3923 15.08851902 31786,6917.844,95.437,540.318,539.1,0.0
53635.0,STARLINK-4587,PAYLOAD,2023-03-23 07:27:46,15.08853443,8.28e-05,53.219,43.0498,93.5623,266.5464,7.927e-06,-1.61e-06,0.0,0 STARLINK-4587,1 53635U 22104AZ  23082.31095669 -.00000161  00000-0  79270-5 0  9994,2 53635  53.2190  43.0498 0000828  93.5623 266.5464 15.08853443 32827,6917.839,95.437,540.277,539.132,0.0
53635.0,STARLINK-4587,PAYLOAD,2023-03-23 18:35:28,15.08847131,7.6e-05,53.2192,40.9685,86.8626,273.2453,0.00017904,2.563e-05,0.0,0 STARLINK-4587,1 53635U 22104AZ  23082.77463356  .00002563  00000-0  17904-3 0  9997,2 53635  53.2192  40.9685 0000760  86.8626 273.2453 15.08847131 32893,6917.859,95.437,540.249,539.198,0.0
